{"type": "FeatureCollection", "features": [ {"type": "Feature", "properties": {"norad_id": 45358, "name": "COSMOS 2545 (760)", "group": "glo-ops", "lat": 36.25954388896958, "lon": -20.93795215309288, "alt_km": 19150.72517393474, "timestamp": "2025-12-24T05:51:19.869852+00:00", "meta": {"OBJECT_NAME": "COSMOS 2545 (760)", "OBJECT_ID": "2020-018A", "EPOCH": "2025-12-23T06:02:53.477376", "MEAN_MOTION": 2.13102687, "ECCENTRICITY": 0.00113235, "INCLINATION": 64.4634, "RA_OF_ASC_NODE": 318.6014, "ARG_OF_PERICENTER": 250.5824, "MEAN_ANOMALY": 109.2939, "EPHEMERIS_TYPE": 0, "CLASSIFICATION_TYPE": "U", "NORAD_CAT_ID": 45358, "ELEMENT_SET_NO": 999, "REV_AT_EPOCH": 4491, "BSTAR": 0, "MEAN_MOTION_DOT": -3.7e-07, "MEAN_MOTION_DDOT": 0}, "tle": {"line1": "1 45358U 20018A   25357.25200784 -.00000037  00000+0  00000+0 0  9995", "line2": "2 45358  64.4634 318.6014 0011323 250.5824 109.2939  2.13102687 44914"}}, "geometry": {"type": "Point", "coordinates": [-20.93795215309288, 36.25954388896958]}}, {"type": "Feature", "properties": {"norad_id": 46805, "name": "COSMOS 2547 (705K)", "group": "glo-ops", "lat": -61.496629881948266, "lon": 79.42855642808587, "alt_km": 19122.853297522, "timestamp": "2025-12-24T05:51:19.869863+00:00", "meta": {"OBJECT_NAME": "COSMOS 2547 (705K)", "OBJECT_ID": "2020-075A", "EPOCH": "2025-12-22T23:18:06.838272", "MEAN_MOTION": 2.13100223, "ECCENTRICITY": 0.00061117, "INCLINATION": 64.5968, "RA_OF_ASC_NODE": 198.3547, "ARG_OF_PERICENTER": 227.5721, "MEAN_ANOMALY": 132.44, "EPHEMERIS_TYPE": 0, "CLASSIFICATION_TYPE": "U", "NORAD_CAT_ID": 46805, "ELEMENT_SET_NO": 999, "REV_AT_EPOCH": 4015, "BSTAR": 0, "MEAN_MOTION_DOT": 9.5e-07, "MEAN_MOTION_DDOT": 0}, "tle": {"line1": "1 46805U 20075A   25356.97091248  .00000095  00000+0  00000+0 0  9990", "line2": "2 46805  64.5968 198.3547 0006111 227.5721 132.4400  2.13100223 40153"}}, "geometry": {"type": "Point", "coordinates": [79.42855642808587, -61.496629881948266]}}, {"type": "Feature", "properties": {"norad_id": 52984, "name": "COSMOS 2557 (706K)", "group": "glo-ops", "lat": 43.929100671784916, "lon": 113.1511467768385, "alt_km": 19154.379153489845, "timestamp": "2025-12-24T05:51:19.869874+00:00", "meta": {"OBJECT_NAME": "COSMOS 2557 (706K)", "OBJECT_ID": "2022-075A", "EPOCH": "2025-12-23T03:16:01.928352", "MEAN_MOTION": 2.1310205, "ECCENTRICITY": 0.00135388, "INCLINATION": 64.4039, "RA_OF_ASC_NODE": 320.6862, "ARG_OF_PERICENTER": 278.4196, "MEAN_ANOMALY": 81.425, "EPHEMERIS_TYPE": 0, "CLASSIFICATION_TYPE": "U", "NORAD_CAT_ID": 52984, "ELEMENT_SET_NO": 999, "REV_AT_EPOCH": 2696, "BSTAR": 0, "MEAN_MOTION_DOT": -3.9e-07, "MEAN_MOTION_DDOT": 0}, "tle": {"line1": "1 52984U 22075A   25357.13613343 -.00000039  00000+0  00000+0 0  9991", "line2": "2 52984  64.4039 320.6862 0013538 278.4196  81.4250  2.13102050 26967"}}, "geometry": {"type": "Point", "coordinates": [113.1511467768385, 43.929100671784916]}}, {"type": "Feature", "properties": {"norad_id": 54031, "name": "COSMOS 2559 (707K)", "group": "glo-ops", "lat": -64.34732985565672, "lon": -132.2256396295845, "alt_km": 19129.92139619359, "timestamp": "2025-12-24T05:51:19.869885+00:00", "meta": {"OBJECT_NAME": "COSMOS 2559 (707K)", "OBJECT_ID": "2022-130A", "EPOCH": "2025-12-22T22:55:41.357856", "MEAN_MOTION": 2.13101293, "ECCENTRICITY": 0.00115202, "INCLINATION": 64.3764, "RA_OF_ASC_NODE": 320.7818, "ARG_OF_PERICENTER": 191.7582, "MEAN_ANOMALY": 168.2129, "EPHEMERIS_TYPE": 0, "CLASSIFICATION_TYPE": "U", "NORAD_CAT_ID": 54031, "ELEMENT_SET_NO": 999, "REV_AT_EPOCH": 2493, "BSTAR": 0, "MEAN_MOTION_DOT": -4e-07, "MEAN_MOTION_DDOT": 0}, "tle": {"line1": "1 54031U 22130A   25356.95533979 -.00000040  00000+0  00000+0 0  9995", "line2": "2 54031  64.3764 320.7818 0011520 191.7582 168.2129  2.13101293 24935"}}, "geometry": {"type": "Point", "coordinates": [-132.2256396295845, -64.34732985565672]}}, {"type": "Feature", "properties": {"norad_id": 54377, "name": "COSMOS 2564 (761)", "group": "glo-ops", "lat": 25.234313729105857, "lon": -148.61408206278367, "alt_km": 19148.84149863232, "timestamp": "2025-12-24T05:51:19.869896+00:00", "meta": {"OBJECT_NAME": "COSMOS 2564 (761)", "OBJECT_ID": "2022-161A", "EPOCH": "2025-12-22T19:11:15.319968", "MEAN_MOTION": 2.13102038, "ECCENTRICITY": 0.00085475, "INCLINATION": 64.7388, "RA_OF_ASC_NODE": 198.5646, "ARG_OF_PERICENTER": 203.7096, "MEAN_ANOMALY": 156.316, "EPHEMERIS_TYPE": 0, "CLASSIFICATION_TYPE": "U", "NORAD_CAT_ID": 54377, "ELEMENT_SET_NO": 999, "REV_AT_EPOCH": 2387, "BSTAR": 0, "MEAN_MOTION_DOT": 9.5e-07, "MEAN_MOTION_DDOT": 0}, "tle": {"line1": "1 54377U 22161A   25356.79948287  .00000095  00000+0  00000+0 0  9995", "line2": "2 54377  64.7388 198.5646 0008547 203.7096 156.3160  2.13102038 23876"}}, "geometry": {"type": "Point", "coordinates": [-148.61408206278367, 25.234313729105857]}}, {"type": "Feature", "properties": {"norad_id": 57517, "name": "COSMOS 2569 (703K)", "group": "glo-ops", "lat": 16.241650265601688, "lon": 86.26707690619223, "alt_km": 19128.566337632245, "timestamp": "2025-12-24T05:51:19.869907+00:00", "meta": {"OBJECT_NAME": "COSMOS 2569 (703K)", "OBJECT_ID": "2023-114A", "EPOCH": "2025-12-23T06:46:12.296064", "MEAN_MOTION": 2.13104025, "ECCENTRICITY": 0.00108924, "INCLINATION": 65.1995, "RA_OF_ASC_NODE": 78.5573, "ARG_OF_PERICENTER": 287.0521, "MEAN_ANOMALY": 72.876, "EPHEMERIS_TYPE": 0, "CLASSIFICATION_TYPE": "U", "NORAD_CAT_ID": 57517, "ELEMENT_SET_NO": 999, "REV_AT_EPOCH": 1851, "BSTAR": 0, "MEAN_MOTION_DOT": 0, "MEAN_MOTION_DDOT": 0}, "tle": {"line1": "1 57517U 23114A   25357.28208676  .00000000  00000+0  00000+0 0  9995", "line2": "2 57517  65.1995  78.5573 0010892 287.0521  72.8760  2.13104025 18515"}}, "geometry": {"type": "Point", "coordinates": [86.26707690619223, 16.241650265601688]}}, {"type": "Feature", "properties": {"norad_id": 63130, "name": "COSMOS 2584 (704K)", "group": "glo-ops", "lat": 61.19271039208013, "lon": -159.214525304504, "alt_km": 19131.68911158392, "timestamp": "2025-12-24T05:51:19.869917+00:00", "meta": {"OBJECT_NAME": "COSMOS 2584 (704K)", "OBJECT_ID": "2025-042A", "EPOCH": "2025-12-23T15:18:41.586912", "MEAN_MOTION": 2.13102998, "ECCENTRICITY": 0.00077597, "INCLINATION": 64.9817, "RA_OF_ASC_NODE": 78.7748, "ARG_OF_PERICENTER": 220.3621, "MEAN_ANOMALY": 139.628, "EPHEMERIS_TYPE": 0, "CLASSIFICATION_TYPE": "U", "NORAD_CAT_ID": 63130, "ELEMENT_SET_NO": 999, "REV_AT_EPOCH": 630, "BSTAR": 0, "MEAN_MOTION_DOT": 1e-08, "MEAN_MOTION_DDOT": 0}, "tle": {"line1": "1 63130U 25042A   25357.63798133  .00000001  00000+0  00000+0 0  9997", "line2": "2 63130  64.9817  78.7748 0007759 220.3621 139.6280  2.13102998  6308"}}, "geometry": {"type": "Point", "coordinates": [-159.214525304504, 61.19271039208013]}}, {"type": "Feature", "properties": {"norad_id": 65590, "name": "COSMOS 2596 (708K)", "group": "glo-ops", "lat": -38.208820969145144, "lon": 162.86408469839435, "alt_km": 19131.287411182806, "timestamp": "2025-12-24T05:51:19.869928+00:00", "meta": {"OBJECT_NAME": "COSMOS 2596 (708K)", "OBJECT_ID": "2025-206B", "EPOCH": "2025-12-23T22:53:10.888800", "MEAN_MOTION": 2.13100322, "ECCENTRICITY": 0.00140941, "INCLINATION": 64.7383, "RA_OF_ASC_NODE": 321.0857, "ARG_OF_PERICENTER": 307.5148, "MEAN_ANOMALY": 52.9772, "EPHEMERIS_TYPE": 0, "CLASSIFICATION_TYPE": "U", "NORAD_CAT_ID": 65590, "ELEMENT_SET_NO": 999, "REV_AT_EPOCH": 218, "BSTAR": 0, "MEAN_MOTION_DOT": -3.6e-07, "MEAN_MOTION_DDOT": 0}, "tle": {"line1": "1 65590U 25206B   25357.95359825 -.00000036  00000+0  00000+0 0  9996", "line2": "2 65590  64.7383 321.0857 0014094 307.5148  52.9772  2.13100322  2187"}}, "geometry": {"type": "Point", "coordinates": [162.86408469839435, -38.208820969145144]}}]}